NORAD_CAT_ID,OBJECT_NAME,OBJECT_TYPE,EPOCH,MEAN_MOTION,ECCENTRICITY,INCLINATION,RA_OF_ASC_NODE,ARG_OF_PERICENTER,MEAN_ANOMALY,BSTAR,MEAN_MOTION_DOT,MEAN_MOTION_DDOT,TLE_LINE0,TLE_LINE1,TLE_LINE2,SEMIMAJOR_AXIS,PERIOD,APOGEE,PERIGEE,DECAYED
51894.0,STARLINK-3595,PAYLOAD,2023-01-18 12:32:02,15.08884634,0.0001776999999999,53.2154,104.4751,71.0393,289.0791,0.0017432,0.00027598,0.0,0 STARLINK-3595,1 51894U 22022AU  23018.52224981  .00027598  00000-0  17432-2 0  9992,2 51894  53.2154 104.4751 0001777  71.0393 289.0791 15.08884634 50273,6917.744000000001,95.435,540.8380000000001,538.38,0.0
51894.0,STARLINK-3595,PAYLOAD,2023-01-18 22:04:20,15.08865655,0.0001747,53.2149,102.6923,70.6454,289.4727,0.00037904,5.754e-05,0.0,0 STARLINK-3595,1 51894U 22022AU  23018.91968610  .00005754  00000-0  37904-3 0  9996,2 51894  53.2149 102.6923 0001747  70.6454 289.4727 15.08865655 50330,6917.802,95.436,540.876,538.4580000000001,0.0
51894.0,STARLINK-3595,PAYLOAD,2023-01-19 06:01:16,15.08851123,0.0001551999999999,53.2165,101.2059,86.4385,273.6784,1.4903e-05,-5.1e-07,0.0,0 STARLINK-3595,1 51894U 22022AU  23019.25088611 -.00000051  00000-0  14903-4 0  9999,2 51894  53.2165 101.2059 0001552  86.4385 273.6784 15.08851123 50383,6917.846,95.437,540.785,538.638,0.0
51894.0,STARLINK-3595,PAYLOAD,2023-01-19 10:47:25,15.0886098,0.000169,53.2171,100.3133,93.9464,266.1721,0.00026617,3.953e-05,0.0,0 STARLINK-3595,1 51894U 22022AU  23019.44960127  .00003953  00000-0  26617-3 0  9998,2 51894  53.2171 100.3133 0001690  93.9464 266.1721 15.08860980 50410,6917.816,95.436,540.85,538.512,0.0
51894.0,STARLINK-3595,PAYLOAD,2023-01-19 12:22:48,15.08863342,0.0001713,53.2159,100.0154,88.8512,271.2676,0.00046713,7.159e-05,0.0,0 STARLINK-3595,1 51894U 22022AU  23019.51584075  .00007159  00000-0  46713-3 0  9991,2 51894  53.2159 100.0154 0001713  88.8512 271.2676 15.08863342 50421,6917.809,95.436,540.859,538.489,0.0
51894.0,STARLINK-3595,PAYLOAD,2023-01-20 12:13:35,15.08851006,0.0001647,53.2159,95.5554,107.6434,252.4738,0.00072825,0.00011325,0.0,0 STARLINK-3595,1 51894U 22022AU  23020.50944426  .00011325  00000-0  72825-3 0  9995,2 51894  53.2159  95.5554 0001647 107.6434 252.4738 15.08851006 50572,6917.847,95.437,540.851,538.572,0.0
51894.0,STARLINK-3595,PAYLOAD,2023-01-21 05:42:50,15.08842786,0.0001291,53.2157,92.2855,103.1634,256.9502,0.00087894,0.00013729,0.0,0 STARLINK-3595,1 51894U 22022AU  23021.23808661  .00013729  00000-0  87894-3 0  9998,2 51894  53.2157  92.2855 0001291 103.1634 256.9502 15.08842786 50681,6917.871999999999,95.437,540.63,538.844,0.0
51894.0,STARLINK-3595,PAYLOAD,2023-01-22 13:30:32,15.08859534,0.0001378,53.215,86.3357,91.4306,268.6844,0.00069131,0.00010737,0.0,0 STARLINK-3595,1 51894U 22022AU  23022.56288046  .00010737  00000-0  69131-3 0  9994,2 51894  53.2150  86.3357 0001378  91.4306 268.6844 15.08859534 50886,6917.821,95.436,540.639,538.732,0.0
51894.0,STARLINK-3595,PAYLOAD,2023-01-23 03:49:01,15.08837133,0.000198,53.2154,83.6624,87.8551,272.2667,7.2795e-05,8.7e-06,0.0,0 STARLINK-3595,1 51894U 22022AU  23023.15904824  .00000870  00000-0  72795-4 0  9997,2 51894  53.2154  83.6624 0001980  87.8551 272.2667 15.08837133 50972,6917.889,95.438,541.124,538.384,0.0
51894.0,STARLINK-3595,PAYLOAD,2023-01-24 03:39:49,15.08834278,0.0001696,53.2153,79.2005,96.7703,263.3483,0.00022584,3.307e-05,0.0,0 STARLINK-3595,1 51894U 22022AU  23024.15265464  .00003307  00000-0  22584-3 0  9996,2 51894  53.2153  79.2005 0001696  96.7703 263.3483 15.08834278 51129,6917.898,95.438,540.936,538.59,0.0
51894.0,STARLINK-3595,PAYLOAD,2023-01-25 03:30:36,15.08835916,0.0001453,53.2147,74.74,88.4797,271.6362,0.00030287,4.535e-05,0.0,0 STARLINK-3595,1 51894U 22022AU  23025.14626155  .00004535  00000-0  30287-3 0  9997,2 51894  53.2147  74.7400 0001453  88.4797 271.6362 15.08835916 51277,6917.893,95.438,540.763,538.753,0.0
51894.0,STARLINK-3595,PAYLOAD,2023-01-25 09:52:09,15.08835078,0.0001301,53.2152,73.5507,80.153,279.9609,0.00019365,2.795e-05,0.0,0 STARLINK-3595,1 51894U 22022AU  23025.41122318  .00002795  00000-0  19365-3 0  9999,2 51894  53.2152  73.5507 0001301  80.1530 279.9609 15.08835078 51313,6917.895,95.438,540.66,538.86,0.0
51894.0,STARLINK-3595,PAYLOAD,2023-01-26 11:18:19,15.08858275,0.0001313,53.2163,68.7924,79.2872,280.8268,0.00057588,8.894e-05,0.0,0 STARLINK-3595,1 51894U 22022AU  23026.47105683  .00008894  00000-0  57588-3 0  9997,2 51894  53.2163  68.7924 0001313  79.2872 280.8268 15.08858275 51478,6917.825,95.436,540.5980000000001,538.781,0.0
51894.0,STARLINK-3595,PAYLOAD,2023-01-26 19:15:15,15.08847097,0.0001112,53.2155,67.3018,89.296,270.8159,0.00019094,2.753e-05,0.0,0 STARLINK-3595,1 51894U 22022AU  23026.80225762  .00002753  00000-0  19094-3 0  9993,2 51894  53.2155  67.3018 0001112  89.2960 270.8159 15.08847097 51528,6917.859,95.437,540.493,538.9540000000001,0.0
51894.0,STARLINK-3595,PAYLOAD,2023-01-27 12:44:29,15.08850082,0.0001202,53.2156,64.0329,91.5471,268.5659,0.00023928,3.523e-05,0.0,0 STARLINK-3595,1 51894U 22022AU  23027.53089657  .00003523  00000-0  23928-3 0  9992,2 51894  53.2156  64.0329 0001202  91.5471 268.5659 15.08850082 51630,6917.85,95.437,540.5459999999999,538.883,0.0
51894.0,STARLINK-3595,PAYLOAD,2023-01-27 19:06:02,15.08844452,0.0001105999999999,53.2157,62.8427,85.4217,274.6901,0.00017369,2.478e-05,0.0,0 STARLINK-3595,1 51894U 22022AU  23027.79585779  .00002478  00000-0  17369-3 0  9996,2 51894  53.2157  62.8427 0001106  85.4217 274.6901 15.08844452 51675,6917.866999999999,95.437,540.497,538.967,0.0
51894.0,STARLINK-3595,PAYLOAD,2023-01-28 03:02:58,15.0883425,0.000127,53.2162,61.3559,97.2117,262.9019,-0.00011125,-2.058e-05,0.0,0 STARLINK-3595,1 51894U 22022AU  23028.12706159 -.00002058  00000-0 -11125-3 0  9991,2 51894  53.2162  61.3559 0001270  97.2117 262.9019 15.08834250 51724,6917.898,95.438,540.6419999999999,538.884,0.0
51894.0,STARLINK-3595,PAYLOAD,2023-01-28 10:59:53,15.08842575,0.0001309,53.2162,59.8697,85.2474,274.8667,-0.0001263,-2.298e-05,0.0,0 STARLINK-3595,1 51894U 22022AU  23028.45825987 -.00002298  00000-0 -12630-3 0  9996,2 51894  53.2162  59.8697 0001309  85.2474 274.8667 15.08842575 51770,6917.873,95.437,540.643,538.832,0.0
51894.0,STARLINK-3595,PAYLOAD,2023-01-28 18:56:49,15.0884098,0.0001325,53.2172,58.3833,89.2112,270.9032,-5.2871e-06,-3.72e-06,0.0,0 STARLINK-3595,1 51894U 22022AU  23028.78946119 -.00000372  00000-0 -52871-5 0  9997,2 51894  53.2172  58.3833 0001325  89.2112 270.9032 15.08840980 51825,6917.877,95.437,540.659,538.826,0.0
51894.0,STARLINK-3595,PAYLOAD,2023-01-29 06:04:31,15.0884454,0.00013,53.2174,56.3015,94.6932,265.4209,0.00022648,3.319e-05,0.0,0 STARLINK-3595,1 51894U 22022AU  23029.25314120  .00003319  00000-0  22648-3 0  9990,2 51894  53.2174  56.3015 0001300  94.6932 265.4209 15.08844540 51898,6917.867,95.437,540.631,538.832,0.0
51894.0,STARLINK-3595,PAYLOAD,2023-01-29 18:47:36,15.08844129,0.0001239,53.2162,53.9218,81.9615,278.1518,0.00018221,2.614e-05,0.0,0 STARLINK-3595,1 51894U 22022AU  23029.78306148  .00002614  00000-0  18221-3 0  9998,2 51894  53.2162  53.9218 0001239  81.9615 278.1518 15.08844129 51977,6917.868,95.437,540.59,538.876,0.0
51894.0,STARLINK-3595,PAYLOAD,2023-01-30 05:55:18,15.08838534,0.0001234,53.2162,51.8402,82.8634,277.2498,0.00010883,1.445e-05,0.0,0 STARLINK-3595,1 51894U 22022AU  23030.24674429  .00001445  00000-0  10883-3 0  9998,2 51894  53.2162  51.8402 0001234  82.8634 277.2498 15.08838534 52044,6917.885,95.438,540.604,538.896,0.0
51894.0,STARLINK-3595,PAYLOAD,2023-01-30 10:41:27,15.08843016,0.0001245,53.2157,50.9475,82.1829,277.9305,0.00014521,2.024e-05,0.0,0 STARLINK-3595,1 51894U 22022AU  23030.44546295  .00002024  00000-0  14521-3 0  9996,2 51894  53.2157  50.9475 0001245  82.1829 277.9305 15.08843016 52077,6917.871,95.437,540.597,538.875,0.0
51894.0,STARLINK-3595,PAYLOAD,2023-01-30 18:38:23,15.08843633,0.000125,53.2155,49.461,84.9402,275.1733,0.00012369,1.681e-05,0.0,0 STARLINK-3595,1 51894U 22022AU  23030.77666243  .00001681  00000-0  12369-3 0  9994,2 51894  53.2155  49.4610 0001250  84.9402 275.1733 15.08843633 52128,6917.869,95.437,540.599,538.87,0.0
51894.0,STARLINK-3595,PAYLOAD,2023-01-31 10:32:14,15.08850361,0.0001285,53.2149,46.4863,92.6206,267.4933,0.00017281,2.464e-05,0.0,0 STARLINK-3595,1 51894U 22022AU  23031.43905852  .00002464  00000-0  17281-3 0  9998,2 51894  53.2149  46.4863 0001285  92.6206 267.4933 15.08850361 52227,6917.849,95.437,540.603,538.825,0.0
51894.0,STARLINK-3595,PAYLOAD,2023-01-31 18:29:10,15.0884948,0.0001228,53.215,44.9994,100.6499,259.4632,0.00015438,2.171e-05,0.0,0 STARLINK-3595,1 51894U 22022AU  23031.77025763  .00002171  00000-0  15438-3 0  9996,2 51894  53.2150  44.9994 0001228 100.6499 259.4632 15.08849480 52270,6917.851,95.437,540.566,538.867,0.0
51894.0,STARLINK-3595,PAYLOAD,2023-02-01 05:36:52,15.08844366,0.0001428,53.2147,42.9181,96.5273,263.5882,0.00016184,2.289e-05,0.0,0 STARLINK-3595,1 51894U 22022AU  23032.23394029  .00002289  00000-0  16184-3 0  9991,2 51894  53.2147  42.9181 0001428  96.5273 263.5882 15.08844366 52346,6917.867,95.437,540.72,538.744,0.0
51894.0,STARLINK-3595,PAYLOAD,2023-02-01 10:23:01,15.08846415,0.0001455,53.2148,42.0258,100.9943,259.1212,0.00015841,2.234e-05,0.0,0 STARLINK-3595,1 51894U 22022AU  23032.43265835  .00002234  00000-0  15841-3 0  9994,2 51894  53.2148  42.0258 0001455 100.9943 259.1212 15.08846415 52375,6917.861,95.437,540.732,538.719,0.0
51894.0,STARLINK-3595,PAYLOAD,2023-02-01 23:06:07,15.0883968,0.0001525,53.2137,39.6459,105.941,254.175,3.9059e-05,3.34e-06,0.0,0 STARLINK-3595,1 51894U 22022AU  23032.96258173  .00000334  00000-0  39059-4 0  9996,2 51894  53.2137  39.6459 0001525 105.9410 254.1750 15.08839680 52457,6917.881,95.438,540.801,538.691,0.0
51894.0,STARLINK-3595,PAYLOAD,2023-02-02 10:13:48,15.08845518,0.0001321,53.2151,37.5666,93.2364,266.8779,8.8713e-05,1.124e-05,0.0,0 STARLINK-3595,1 51894U 22022AU  23033.42625908  .00001124  00000-0  88713-4 0  9991,2 51894  53.2151  37.5666 0001321  93.2364 266.8779 15.08845518 52527,6917.864,95.437,540.642,538.815,0.0
